{"type": "FeatureCollection", "features": [ {"type": "Feature", "properties": {"norad_id": 42738, "name": "QZS-2 (QZSS/PRN 194)", "group": "gnss", "lat": 17.68788648995699, "lon": 43.22301162893188, "alt_km": 37074.29780104599, "timestamp": "2025-12-21T11:31:43.097734+00:00", "meta": {"OBJECT_NAME": "QZS-2 (QZSS/PRN 194)", "OBJECT_ID": "2017-028A", "EPOCH": "2025-12-18T13:55:30.556128", "MEAN_MOTION": 1.00281517, "ECCENTRICITY": 0.07566042, "INCLINATION": 39.7045, "RA_OF_ASC_NODE": 245.7969, "ARG_OF_PERICENTER": 269.5406, "MEAN_ANOMALY": 282.9842, "EPHEMERIS_TYPE": 0, "CLASSIFICATION_TYPE": "U", "NORAD_CAT_ID": 42738, "ELEMENT_SET_NO": 999, "REV_AT_EPOCH": 581, "BSTAR": 0, "MEAN_MOTION_DOT": -1.25e-06, "MEAN_MOTION_DDOT": 0}, "tle": {"line1": "1 42738U 17028A   25352.58021477 -.00000125  00000+0  00000+0 0  9990", "line2": "2 42738  39.7045 245.7969 0756604 269.5406 282.9842  1.00281517  5810"}}, "geometry": {"type": "Point", "coordinates": [43.22301162893188, 17.68788648995699]}}, {"type": "Feature", "properties": {"norad_id": 42917, "name": "QZS-3 (QZSS/PRN 199)", "group": "gnss", "lat": 0.0009853948431835157, "lon": 30.238369103869662, "alt_km": 35790.67085435305, "timestamp": "2025-12-21T11:31:43.097746+00:00", "meta": {"OBJECT_NAME": "QZS-3 (QZSS/PRN 199)", "OBJECT_ID": "2017-048A", "EPOCH": "2025-12-21T00:06:24.384096", "MEAN_MOTION": 1.00265314, "ECCENTRICITY": 0.0001845, "INCLINATION": 0.0278, "RA_OF_ASC_NODE": 164.3094, "ARG_OF_PERICENTER": 115.7892, "MEAN_ANOMALY": 298.3424, "EPHEMERIS_TYPE": 0, "CLASSIFICATION_TYPE": "U", "NORAD_CAT_ID": 42917, "ELEMENT_SET_NO": 999, "REV_AT_EPOCH": 3047, "BSTAR": 0, "MEAN_MOTION_DOT": 0, "MEAN_MOTION_DDOT": 0}, "tle": {"line1": "1 42917U 17048A   25355.00444889  .00000000  00000+0  00000+0 0  9998", "line2": "2 42917   0.0278 164.3094 0001845 115.7892 298.3424  1.00265314 30478"}}, "geometry": {"type": "Point", "coordinates": [30.238369103869662, 0.0009853948431835157]}}, {"type": "Feature", "properties": {"norad_id": 42939, "name": "COSMOS 2522 (752)", "group": "gnss", "lat": 19.34531418835482, "lon": 8.098175855356187, "alt_km": 19121.14595342074, "timestamp": "2025-12-21T11:31:43.097758+00:00", "meta": {"OBJECT_NAME": "COSMOS 2522 (752)", "OBJECT_ID": "2017-055A", "EPOCH": "2025-12-20T19:18:35.639424", "MEAN_MOTION": 2.13102071, "ECCENTRICITY": 0.0006306, "INCLINATION": 64.0764, "RA_OF_ASC_NODE": 197.9542, "ARG_OF_PERICENTER": 223.7674, "MEAN_ANOMALY": 136.256, "EPHEMERIS_TYPE": 0, "CLASSIFICATION_TYPE": "U", "NORAD_CAT_ID": 42939, "ELEMENT_SET_NO": 999, "REV_AT_EPOCH": 6417, "BSTAR": 0, "MEAN_MOTION_DOT": 9.9e-07, "MEAN_MOTION_DDOT": 0}, "tle": {"line1": "1 42939U 17055A   25354.80457916  .00000099  00000+0  00000+0 0  9990", "line2": "2 42939  64.0764 197.9542 0006306 223.7674 136.2560  2.13102071 64177"}}, "geometry": {"type": "Point", "coordinates": [8.098175855356187, 19.34531418835482]}}, {"type": "Feature", "properties": {"norad_id": 42965, "name": "QZS-4 (QZSS/PRN 195)", "group": "gnss", "lat": 33.2639772920246, "lon": 36.642769693739226, "alt_km": 38360.2952870401, "timestamp": "2025-12-21T11:31:43.097771+00:00", "meta": {"OBJECT_NAME": "QZS-4 (QZSS/PRN 195)", "OBJECT_ID": "2017-062A", "EPOCH": "2025-12-20T12:23:32.377344", "MEAN_MOTION": 1.00250818, "ECCENTRICITY": 0.07514763, "INCLINATION": 40.2219, "RA_OF_ASC_NODE": 345.7724, "ARG_OF_PERICENTER": 271.7049, "MEAN_ANOMALY": 153.5074, "EPHEMERIS_TYPE": 0, "CLASSIFICATION_TYPE": "U", "NORAD_CAT_ID": 42965, "ELEMENT_SET_NO": 999, "REV_AT_EPOCH": 3001, "BSTAR": 0, "MEAN_MOTION_DOT": -3.25e-06, "MEAN_MOTION_DDOT": 0}, "tle": {"line1": "1 42965U 17062A   25354.51634696 -.00000325  00000+0  00000+0 0  9990", "line2": "2 42965  40.2219 345.7724 0751476 271.7049 153.5074  1.00250818 30012"}}, "geometry": {"type": "Point", "coordinates": [36.642769693739226, 33.2639772920246]}}, {"type": "Feature", "properties": {"norad_id": 43001, "name": "BEIDOU-3 M1 (C19)", "group": "gnss", "lat": 41.99285823883681, "lon": 105.44344243753922, "alt_km": 21532.546820637726, "timestamp": "2025-12-21T11:31:43.097783+00:00", "meta": {"OBJECT_NAME": "BEIDOU-3 M1 (C19)", "OBJECT_ID": "2017-069A", "EPOCH": "2025-12-19T06:04:23.941632", "MEAN_MOTION": 1.86231412, "ECCENTRICITY": 0.0009566, "INCLINATION": 56.5322, "RA_OF_ASC_NODE": 69.0186, "ARG_OF_PERICENTER": 302.1864, "MEAN_ANOMALY": 57.7554, "EPHEMERIS_TYPE": 0, "CLASSIFICATION_TYPE": "U", "NORAD_CAT_ID": 43001, "ELEMENT_SET_NO": 999, "REV_AT_EPOCH": 5525, "BSTAR": 0, "MEAN_MOTION_DOT": -5.5e-07, "MEAN_MOTION_DDOT": 0}, "tle": {"line1": "1 43001U 17069A   25353.25305488 -.00000055  00000+0  00000+0 0  9993", "line2": "2 43001  56.5322  69.0186 0009566 302.1864  57.7554  1.86231412 55251"}}, "geometry": {"type": "Point", "coordinates": [105.44344243753922, 41.99285823883681]}}, {"type": "Feature", "properties": {"norad_id": 43002, "name": "BEIDOU-3 M2 (C20)", "group": "gnss", "lat": 56.272324757548425, "lon": 167.38872195936804, "alt_km": 21531.823118544733, "timestamp": "2025-12-21T11:31:43.097799+00:00", "meta": {"OBJECT_NAME": "BEIDOU-3 M2 (C20)", "OBJECT_ID": "2017-069B", "EPOCH": "2025-12-19T04:35:39.539904", "MEAN_MOTION": 1.86231009, "ECCENTRICITY": 0.0006519, "INCLINATION": 56.532, "RA_OF_ASC_NODE": 69.0565, "ARG_OF_PERICENTER": 330.2695, "MEAN_ANOMALY": 29.7276, "EPHEMERIS_TYPE": 0, "CLASSIFICATION_TYPE": "U", "NORAD_CAT_ID": 43002, "ELEMENT_SET_NO": 999, "REV_AT_EPOCH": 5524, "BSTAR": 0, "MEAN_MOTION_DOT": -5.5e-07, "MEAN_MOTION_DDOT": 0}, "tle": {"line1": "1 43002U 17069B   25353.19142986 -.00000055  00000+0  00000+0 0  9999", "line2": "2 43002  56.5320  69.0565 0006519 330.2695  29.7276  1.86231009 55241"}}, "geometry": {"type": "Point", "coordinates": [167.38872195936804, 56.272324757548425]}}, {"type": "Feature", "properties": {"norad_id": 43055, "name": "GSAT0215 (GALILEO 19)", "group": "gnss", "lat": 44.025635118477425, "lon": 4.056607555811499, "alt_km": 23219.509754675037, "timestamp": "2025-12-21T11:31:43.097811+00:00", "meta": {"OBJECT_NAME": "GSAT0215 (GALILEO 19)", "OBJECT_ID": "2017-079A", "EPOCH": "2025-12-18T08:21:56.206080", "MEAN_MOTION": 1.70474068, "ECCENTRICITY": 0.00012335, "INCLINATION": 55.1282, "RA_OF_ASC_NODE": 226.4832, "ARG_OF_PERICENTER": 345.8587, "MEAN_ANOMALY": 14.2435, "EPHEMERIS_TYPE": 0, "CLASSIFICATION_TYPE": "U", "NORAD_CAT_ID": 43055, "ELEMENT_SET_NO": 999, "REV_AT_EPOCH": 4990, "BSTAR": 0, "MEAN_MOTION_DOT": 6.2e-07, "MEAN_MOTION_DDOT": 0}, "tle": {"line1": "1 43055U 17079A   25352.34856720  .00000062  00000+0  00000+0 0  9999", "line2": "2 43055  55.1282 226.4832 0001233 345.8587  14.2435  1.70474068 49906"}}, "geometry": {"type": "Point", "coordinates": [4.056607555811499, 44.025635118477425]}}, {"type": "Feature", "properties": {"norad_id": 43056, "name": "GSAT0216 (GALILEO 20)", "group": "gnss", "lat": -43.30510691518213, "lon": -174.65701365382284, "alt_km": 23220.658245429175, "timestamp": "2025-12-21T11:31:43.097822+00:00", "meta": {"OBJECT_NAME": "GSAT0216 (GALILEO 20)", "OBJECT_ID": "2017-079B", "EPOCH": "2025-12-19T19:30:44.926272", "MEAN_MOTION": 1.70474153, "ECCENTRICITY": 0.00023685, "INCLINATION": 55.1281, "RA_OF_ASC_NODE": 226.4428, "ARG_OF_PERICENTER": 323.7267, "MEAN_ANOMALY": 36.3665, "EPHEMERIS_TYPE": 0, "CLASSIFICATION_TYPE": "U", "NORAD_CAT_ID": 43056, "ELEMENT_SET_NO": 999, "REV_AT_EPOCH": 4994, "BSTAR": 0, "MEAN_MOTION_DOT": 6.9e-07, "MEAN_MOTION_DDOT": 0}, "tle": {"line1": "1 43056U 17079B   25353.81301998  .00000069  00000+0  00000+0 0  9992", "line2": "2 43056  55.1281 226.4428 0002368 323.7267  36.3665  1.70474153 49946"}}, "geometry": {"type": "Point", "coordinates": [-174.65701365382284, -43.30510691518213]}}, {"type": "Feature", "properties": {"norad_id": 43057, "name": "GSAT0217 (GALILEO 21)", "group": "gnss", "lat": 9.926272968424417, "lon": 39.403801623431654, "alt_km": 23229.410412851437, "timestamp": "2025-12-21T11:31:43.097836+00:00", "meta": {"OBJECT_NAME": "GSAT0217 (GALILEO 21)", "OBJECT_ID": "2017-079C", "EPOCH": "2025-12-18T06:34:31.891008", "MEAN_MOTION": 1.70474093, "ECCENTRICITY": 0.0002798, "INCLINATION": 55.1266, "RA_OF_ASC_NODE": 226.4833, "ARG_OF_PERICENTER": 348.1017, "MEAN_ANOMALY": 11.9971, "EPHEMERIS_TYPE": 0, "CLASSIFICATION_TYPE": "U", "NORAD_CAT_ID": 43057, "ELEMENT_SET_NO": 999, "REV_AT_EPOCH": 4990, "BSTAR": 0, "MEAN_MOTION_DOT": 6.1e-07, "MEAN_MOTION_DDOT": 0}, "tle": {"line1": "1 43057U 17079C   25352.27398022  .00000061  00000+0  00000+0 0  9998", "line2": "2 43057  55.1266 226.4833 0002798 348.1017  11.9971  1.70474093 49909"}}, "geometry": {"type": "Point", "coordinates": [39.403801623431654, 9.926272968424417]}}, {"type": "Feature", "properties": {"norad_id": 43058, "name": "GSAT0218 (GALILEO 22)", "group": "gnss", "lat": 26.381488260684613, "lon": -113.3634408399915, "alt_km": 23218.230599749404, "timestamp": "2025-12-21T11:31:43.097847+00:00", "meta": {"OBJECT_NAME": "GSAT0218 (GALILEO 22)", "OBJECT_ID": "2017-079D", "EPOCH": "2025-12-20T06:05:26.226528", "MEAN_MOTION": 1.70474115, "ECCENTRICITY": 0.00027735, "INCLINATION": 55.1262, "RA_OF_ASC_NODE": 226.4264, "ARG_OF_PERICENTER": 307.8467, "MEAN_ANOMALY": 52.2377, "EPHEMERIS_TYPE": 0, "CLASSIFICATION_TYPE": "U", "NORAD_CAT_ID": 43058, "ELEMENT_SET_NO": 999, "REV_AT_EPOCH": 4996, "BSTAR": 0, "MEAN_MOTION_DOT": 7e-07, "MEAN_MOTION_DDOT": 0}, "tle": {"line1": "1 43058U 17079D   25354.25377577  .00000070  00000+0  00000+0 0  9991", "line2": "2 43058  55.1262 226.4264 0002773 307.8467  52.2377  1.70474115 49967"}}, "geometry": {"type": "Point", "coordinates": [-113.3634408399915, 26.381488260684613]}}]}